[{"OBJECT_NAME":"IRIDIUM 142","OBJECT_ID":"2018-030H","EPOCH":"2026-03-09T19:54:27.398592","MEAN_MOTION":14.34217645,"ECCENTRICITY":0.000204,"INCLINATION":86.4006,"RA_OF_ASC_NODE":331.9079,"ARG_OF_PERICENTER":94.7375,"MEAN_ANOMALY":265.4053,"EPHEMERIS_TYPE":0,"CLASSIFICATION_TYPE":"U","NORAD_CAT_ID":43256,"ELEMENT_SET_NO":999,"REV_AT_EPOCH":41589,"BSTAR":-2.157633e-6,"MEAN_MOTION_DOT":1.4e-7,"MEAN_MOTION_DDOT":0},{"OBJECT_NAME":"FENGYUN 1C DEB","OBJECT_ID":"1999-025EYK","EPOCH":"2026-03-09T17:38:20.663232","MEAN_MOTION":14.24922338,"ECCENTRICITY":0.00519889,"INCLINATION":98.7179,"RA_OF_ASC_NODE":137.1905,"ARG_OF_PERICENTER":334.3595,"MEAN_ANOMALY":25.5008,"EPHEMERIS_TYPE":0,"CLASSIFICATION_TYPE":"U","NORAD_CAT_ID":41832,"ELEMENT_SET_NO":999,"REV_AT_EPOCH":48589,"BSTAR":0.0014697422,"MEAN_MOTION_DOT":3.44e-5,"MEAN_MOTION_DDOT":0}]
